SENTINEL-2A             
1 40697U 15028A   20303.24953291 -.00000078  00000-0 -13001-4 0  9991
2 40697  98.5665  15.5667 0001248  89.4109 270.7243 14.30817785279594
AVUM R/B                
1 40698U 15028B   20302.50639812  .00000942  00000-0  45575-4 0  9999
2 40698  98.6527 251.5123 0254361 302.6228  55.0671 14.98017582292191
